[{"OBJECT_NAME":"SNAP-3 EDDIE","OBJECT_ID":"2015-058J","EPOCH":"2026-03-09T10:37:04.410624","MEAN_MOTION":15.44637695,"ECCENTRICITY":0.00384043,"INCLINATION":64.7481,"RA_OF_ASC_NODE":75.5572,"ARG_OF_PERICENTER":73.6673,"MEAN_ANOMALY":286.8683,"EPHEMERIS_TYPE":0,"CLASSIFICATION_TYPE":"U","NORAD_CAT_ID":40972,"ELEMENT_SET_NO":999,"REV_AT_EPOCH":10354,"BSTAR":0.0012991754,"MEAN_MOTION_DOT":0.00062838,"MEAN_MOTION_DDOT":0},{"OBJECT_NAME":"STARLINK-1656","OBJECT_ID":"2020-062AE","EPOCH":"2026-03-09T22:08:49.885440","MEAN_MOTION":15.52163178,"ECCENTRICITY":0.00027689,"INCLINATION":53.0506,"RA_OF_ASC_NODE":358.4215,"ARG_OF_PERICENTER":148.6798,"MEAN_ANOMALY":211.4376,"EPHEMERIS_TYPE":0,"CLASSIFICATION_TYPE":"U","NORAD_CAT_ID":46353,"ELEMENT_SET_NO":999,"REV_AT_EPOCH":30458,"BSTAR":0.0018174616,"MEAN_MOTION_DOT":0.00113057,"MEAN_MOTION_DDOT":0}]
